COSMOS 2588             
1 64095U 25109A   26068.81179522  .00009169  00000+0  32611-3 0  9998
2 64095  72.9704  73.5401 0005019 308.6780  51.3966 15.29122656 44425
STARLINK-35983          
1 66902U 25283AA  26068.29549538  .00031666  00000+0  10750-2 0  9996
2 66902  53.1604  26.0050 0001474  56.6850 303.4292 15.30251187 15780
